[{"OBJECT_NAME":"STARLINK-5089","OBJECT_ID":"2023-046BJ","EPOCH":"2026-03-09T10:29:20.263776","MEAN_MOTION":15.03010147,"ECCENTRICITY":0.00015953,"INCLINATION":43.0025,"RA_OF_ASC_NODE":109.142,"ARG_OF_PERICENTER":212.4436,"MEAN_ANOMALY":147.6309,"EPHEMERIS_TYPE":0,"CLASSIFICATION_TYPE":"U","NORAD_CAT_ID":56148,"ELEMENT_SET_NO":999,"REV_AT_EPOCH":16261,"BSTAR":0.0043155031,"MEAN_MOTION_DOT":0.00059331,"MEAN_MOTION_DDOT":0},{"OBJECT_NAME":"OBJECT G","OBJECT_ID":"2024-128G","EPOCH":"2026-03-09T22:09:32.997312","MEAN_MOTION":15.06569427,"ECCENTRICITY":0.00508438,"INCLINATION":61.9901,"RA_OF_ASC_NODE":202.8444,"ARG_OF_PERICENTER":113.9294,"MEAN_ANOMALY":246.7137,"EPHEMERIS_TYPE":0,"CLASSIFICATION_TYPE":"U","NORAD_CAT_ID":60241,"ELEMENT_SET_NO":999,"REV_AT_EPOCH":9135,"BSTAR":0.00049882926,"MEAN_MOTION_DOT":7.427e-5,"MEAN_MOTION_DDOT":0}]
